{
  "type": "FeatureCollection",
  "name": "枣庄市中区盲道示例数据",
  "description": "湖西景苑A区至东湖公园沿线盲道矢量示例数据（GCJ-02 坐标），沿实际道路中心线偏移约 1.5 米生成，用于本地演示与测试，非官方测绘数据。",
  "features": [
    {
      "type": "Feature",
      "properties": { "name": "建华西路盲道", "type": "continuous", "width": 0.6 },
      "geometry": {
        "type": "LineString",
        "coordinates": [
          [117.519605, 34.854200],
          [117.519735, 34.854248],
          [117.519852, 34.854318],
          [117.519965, 34.854344],
          [117.520308, 34.854387],
          [117.520330, 34.854456],
          [117.520330, 34.854535],
          [117.520286, 34.854630],
          [117.520282, 34.854630],
          [117.520725, 34.854686],
          [117.520786, 34.854699],
          [117.522023, 34.854843],
          [117.522300, 34.854747],
          [117.522300, 34.854739],
          [117.522444, 34.854912],
          [117.522535, 34.854930],
          [117.522535, 34.854934],
          [117.522661, 34.854830],
          [117.522708, 34.854890],
          [117.522808, 34.854990],
          [117.523672, 34.855294],
          [117.525208, 34.855802],
          [117.526523, 34.856245],
          [117.526675, 34.856180],
          [117.528164, 34.856674],
          [117.528641, 34.856835],
          [117.528867, 34.856909],
          [117.529253, 34.857013],
          [117.530304, 34.857299],
          [117.530664, 34.857321]
        ]
      }
    },
    {
      "type": "Feature",
      "properties": { "name": "西昌北路盲道", "type": "continuous", "width": 0.6 },
      "geometry": {
        "type": "LineString",
        "coordinates": [
          [117.530652, 34.857309],
          [117.530765, 34.857235],
          [117.530886, 34.857135],
          [117.531034, 34.856984],
          [117.531034, 34.856979],
          [117.531051, 34.856780],
          [117.531125, 34.856363],
          [117.531182, 34.856016],
          [117.531286, 34.855564],
          [117.531429, 34.855126],
          [117.531542, 34.854857],
          [117.531724, 34.854466],
          [117.531733, 34.854444],
          [117.531967, 34.853997],
          [117.532275, 34.853420],
          [117.532779, 34.852465],
          [117.532779, 34.852461],
          [117.532518, 34.852370],
          [117.532219, 34.852183],
          [117.532102, 34.852101],
          [117.532019, 34.852075],
          [117.531945, 34.852096],
          [117.531937, 34.852096],
          [117.531746, 34.851780],
          [117.531728, 34.851736],
          [117.531689, 34.851632]
        ]
      }
    },
    {
      "type": "Feature",
      "properties": { "name": "湖西路盲道", "type": "continuous", "width": 0.6 },
      "geometry": {
        "type": "LineString",
        "coordinates": [
          [117.519700, 34.845800],
          [117.519800, 34.848600],
          [117.519700, 34.851400],
          [117.519600, 34.854000],
          [117.519500, 34.856800]
        ]
      }
    },
    {
      "type": "Feature",
      "properties": { "name": "东湖沿湖盲道", "type": "warning", "width": 0.6 },
      "geometry": {
        "type": "LineString",
        "coordinates": [
          [117.531689, 34.851632],
          [117.531300, 34.850900],
          [117.530900, 34.850200],
          [117.530500, 34.849600]
        ]
      }
    }
  ]
}
